ONEWEB-0141             
1 47287U 20100AF  26049.92384999 -.00000413  00000+0 -11824-2 0  9992
2 47287  87.8975  14.1162 0002132  74.3666 285.7698 13.12440961249167
ONEWEB-0142             
1 47288U 20100AG  26049.91229509 -.00000275  00000+0 -79845-3 0  9991
2 47288  87.8977  14.1429 0002280  83.7857 276.3531 13.12441344249153
ONEWEB-0143             
1 47289U 20100AH  26049.92229135 -.00000319  00000+0 -92275-3 0  9999
2 47289  87.8978  14.1371 0001940  79.1724 280.9623 13.12441137249136
ONEWEB-0144             
1 47290U 20100AJ  26050.27469850  .00000405  00000+0  10912-2 0  9992
2 47290  87.8982  14.0359 0002117  88.4131 271.7240 13.12442441249109
ONEWEB-0145             
1 47291U 20100AK  26049.94094239 -.00000081  00000+0 -25975-3 0  9998
2 47291  87.8977  14.1416 0001923  83.0680 277.0667 13.12444369249252
ONEWEB-0146             
1 47292U 20100AL  26049.93754031 -.00000219  00000+0 -64361-3 0  9996
2 47292  87.8976  14.1272 0001522  76.0012 284.1286 13.12445631249167
ONEWEB-0147             
1 47293U 20100AM  26050.28486092  .00000218  00000+0  56963-3 0  9992
2 47293  87.8980  14.0377 0001764  88.9832 271.1498 13.12442332249108
ONEWEB-0115             
1 48042U 21025A   26049.87190822  .00000260  00000+0  67707-3 0  9993
2 48042  87.9046 343.7404 0001729  77.3490 282.7832 13.13470391238061
ONEWEB-0152             
1 48043U 21025B   26050.26633821  .00000330  00000+0  86990-3 0  9993
2 48043  87.9046 343.6645 0001653  76.9129 283.2185 13.13471409238077
ONEWEB-0153             
1 48044U 21025C   26050.24433369  .00000178  00000+0  45241-3 0  9991
2 48044  87.9036 343.6750 0001869  78.7499 281.3840 13.13471678238067
ONEWEB-0154             
1 48045U 21025D   26050.24094512  .00000091  00000+0  21493-3 0  9992
2 48045  87.9039 343.6730 0001720  81.3369 278.7955 13.13470248238026
ONEWEB-0116             
1 48046U 21025E   26050.27987721  .00000073  00000+0  16369-3 0  9995
2 48046  87.9051 343.6519 0001656  77.1643 282.9672 13.13470922238170
ONEWEB-0150             
1 48047U 21025F   26050.25618186  .00000383  00000+0  10137-2 0  9990
2 48047  87.9051 343.6537 0001913  74.8758 285.2583 13.13471485238068
ONEWEB-0107             
1 48048U 21025G   26050.25786462  .00000378  00000+0  99967-3 0  9997
2 48048  87.9050 343.6488 0002017  82.4361 277.6997 13.13472400238044
ONEWEB-0101             
1 48049U 21025H   26050.22063051 -.00000224  00000+0 -64863-3 0  9996
2 48049  87.9039 343.6842 0001839  83.8465 276.2874 13.13470787238019
ONEWEB-0113             
1 48050U 21025J   26050.28642654 -.00000052  00000+0 -17469-3 0  9995
2 48050  87.9049 343.5920 0001544  76.2209 283.9092 13.13973429238123
