[{"OBJECT_NAME":"ONEWEB-0141","OBJECT_ID":"2020-100AF","EPOCH":"2026-02-18T22:10:20.639136","MEAN_MOTION":13.12440961,"ECCENTRICITY":0.0002132,"INCLINATION":87.8975,"RA_OF_ASC_NODE":14.1162,"ARG_OF_PERICENTER":74.3666,"MEAN_ANOMALY":285.7698,"EPHEMERIS_TYPE":0,"CLASSIFICATION_TYPE":"U","NORAD_CAT_ID":47287,"ELEMENT_SET_NO":999,"REV_AT_EPOCH":24916,"BSTAR":-0.0011824,"MEAN_MOTION_DOT":-4.13e-6,"MEAN_MOTION_DDOT":0},{"OBJECT_NAME":"ONEWEB-0142","OBJECT_ID":"2020-100AG","EPOCH":"2026-02-18T21:53:42.295776","MEAN_MOTION":13.12441344,"ECCENTRICITY":0.00022801,"INCLINATION":87.8977,"RA_OF_ASC_NODE":14.1429,"ARG_OF_PERICENTER":83.7857,"MEAN_ANOMALY":276.3531,"EPHEMERIS_TYPE":0,"CLASSIFICATION_TYPE":"U","NORAD_CAT_ID":47288,"ELEMENT_SET_NO":999,"REV_AT_EPOCH":24915,"BSTAR":-0.0007984536,"MEAN_MOTION_DOT":-2.75e-6,"MEAN_MOTION_DDOT":0},{"OBJECT_NAME":"ONEWEB-0143","OBJECT_ID":"2020-100AH","EPOCH":"2026-02-18T22:08:05.972640","MEAN_MOTION":13.12441137,"ECCENTRICITY":0.00019408,"INCLINATION":87.8978,"RA_OF_ASC_NODE":14.1371,"ARG_OF_PERICENTER":79.1724,"MEAN_ANOMALY":280.9623,"EPHEMERIS_TYPE":0,"CLASSIFICATION_TYPE":"U","NORAD_CAT_ID":47289,"ELEMENT_SET_NO":999,"REV_AT_EPOCH":24913,"BSTAR":-0.00092274637,"MEAN_MOTION_DOT":-3.19e-6,"MEAN_MOTION_DDOT":0},{"OBJECT_NAME":"ONEWEB-0144","OBJECT_ID":"2020-100AJ","EPOCH":"2026-02-19T06:35:33.950400","MEAN_MOTION":13.12442441,"ECCENTRICITY":0.00021178,"INCLINATION":87.8982,"RA_OF_ASC_NODE":14.0359,"ARG_OF_PERICENTER":88.4131,"MEAN_ANOMALY":271.724,"EPHEMERIS_TYPE":0,"CLASSIFICATION_TYPE":"U","NORAD_CAT_ID":47290,"ELEMENT_SET_NO":999,"REV_AT_EPOCH":24910,"BSTAR":0.0010911953,"MEAN_MOTION_DOT":4.05e-6,"MEAN_MOTION_DDOT":0},{"OBJECT_NAME":"ONEWEB-0145","OBJECT_ID":"2020-100AK","EPOCH":"2026-02-18T22:34:57.422496","MEAN_MOTION":13.12444369,"ECCENTRICITY":0.00019238,"INCLINATION":87.8977,"RA_OF_ASC_NODE":14.1416,"ARG_OF_PERICENTER":83.068,"MEAN_ANOMALY":277.0667,"EPHEMERIS_TYPE":0,"CLASSIFICATION_TYPE":"U","NORAD_CAT_ID":47291,"ELEMENT_SET_NO":999,"REV_AT_EPOCH":24925,"BSTAR":-0.00025974819,"MEAN_MOTION_DOT":-8.1e-7,"MEAN_MOTION_DDOT":0},{"OBJECT_NAME":"ONEWEB-0146","OBJECT_ID":"2020-100AL","EPOCH":"2026-02-18T22:30:03.482784","MEAN_MOTION":13.12445631,"ECCENTRICITY":0.00015229,"INCLINATION":87.8976,"RA_OF_ASC_NODE":14.1272,"ARG_OF_PERICENTER":76.0012,"MEAN_ANOMALY":284.1286,"EPHEMERIS_TYPE":0,"CLASSIFICATION_TYPE":"U","NORAD_CAT_ID":47292,"ELEMENT_SET_NO":999,"REV_AT_EPOCH":24916,"BSTAR":-0.00064361243,"MEAN_MOTION_DOT":-2.19e-6,"MEAN_MOTION_DDOT":0},{"OBJECT_NAME":"ONEWEB-0147","OBJECT_ID":"2020-100AM","EPOCH":"2026-02-19T06:50:11.983488","MEAN_MOTION":13.12442332,"ECCENTRICITY":0.00017643,"INCLINATION":87.898,"RA_OF_ASC_NODE":14.0377,"ARG_OF_PERICENTER":88.9832,"MEAN_ANOMALY":271.1498,"EPHEMERIS_TYPE":0,"CLASSIFICATION_TYPE":"U","NORAD_CAT_ID":47293,"ELEMENT_SET_NO":999,"REV_AT_EPOCH":24910,"BSTAR":0.00056963,"MEAN_MOTION_DOT":2.18e-6,"MEAN_MOTION_DDOT":0},{"OBJECT_NAME":"ONEWEB-0115","OBJECT_ID":"2021-025A","EPOCH":"2026-02-18T20:55:32.870208","MEAN_MOTION":13.13470391,"ECCENTRICITY":0.00017299,"INCLINATION":87.9046,"RA_OF_ASC_NODE":343.7404,"ARG_OF_PERICENTER":77.349,"MEAN_ANOMALY":282.7832,"EPHEMERIS_TYPE":0,"CLASSIFICATION_TYPE":"U","NORAD_CAT_ID":48042,"ELEMENT_SET_NO":999,"REV_AT_EPOCH":23806,"BSTAR":0.00067707185,"MEAN_MOTION_DOT":2.6e-6,"MEAN_MOTION_DDOT":0},{"OBJECT_NAME":"ONEWEB-0152","OBJECT_ID":"2021-025B","EPOCH":"2026-02-19T06:23:31.621344","MEAN_MOTION":13.13471409,"ECCENTRICITY":0.00016536,"INCLINATION":87.9046,"RA_OF_ASC_NODE":343.6645,"ARG_OF_PERICENTER":76.9129,"MEAN_ANOMALY":283.2185,"EPHEMERIS_TYPE":0,"CLASSIFICATION_TYPE":"U","NORAD_CAT_ID":48043,"ELEMENT_SET_NO":999,"REV_AT_EPOCH":23807,"BSTAR":0.00086990376,"MEAN_MOTION_DOT":3.3e-6,"MEAN_MOTION_DDOT":0},{"OBJECT_NAME":"ONEWEB-0153","OBJECT_ID":"2021-025C","EPOCH":"2026-02-19T05:51:50.430816","MEAN_MOTION":13.13471678,"ECCENTRICITY":0.00018696,"INCLINATION":87.9036,"RA_OF_ASC_NODE":343.675,"ARG_OF_PERICENTER":78.7499,"MEAN_ANOMALY":281.384,"EPHEMERIS_TYPE":0,"CLASSIFICATION_TYPE":"U","NORAD_CAT_ID":48044,"ELEMENT_SET_NO":999,"REV_AT_EPOCH":23806,"BSTAR":0.00045241358,"MEAN_MOTION_DOT":1.78e-6,"MEAN_MOTION_DDOT":0},{"OBJECT_NAME":"ONEWEB-0154","OBJECT_ID":"2021-025D","EPOCH":"2026-02-19T05:46:57.658368","MEAN_MOTION":13.13470248,"ECCENTRICITY":0.00017205,"INCLINATION":87.9039,"RA_OF_ASC_NODE":343.673,"ARG_OF_PERICENTER":81.3369,"MEAN_ANOMALY":278.7955,"EPHEMERIS_TYPE":0,"CLASSIFICATION_TYPE":"U","NORAD_CAT_ID":48045,"ELEMENT_SET_NO":999,"REV_AT_EPOCH":23802,"BSTAR":0.00021492937,"MEAN_MOTION_DOT":9.1e-7,"MEAN_MOTION_DDOT":0},{"OBJECT_NAME":"ONEWEB-0116","OBJECT_ID":"2021-025E","EPOCH":"2026-02-19T06:43:01.390944","MEAN_MOTION":13.13470922,"ECCENTRICITY":0.00016567,"INCLINATION":87.9051,"RA_OF_ASC_NODE":343.6519,"ARG_OF_PERICENTER":77.1643,"MEAN_ANOMALY":282.9672,"EPHEMERIS_TYPE":0,"CLASSIFICATION_TYPE":"U","NORAD_CAT_ID":48046,"ELEMENT_SET_NO":999,"REV_AT_EPOCH":23817,"BSTAR":0.00016368597,"MEAN_MOTION_DOT":7.3e-7,"MEAN_MOTION_DDOT":0},{"OBJECT_NAME":"ONEWEB-0150","OBJECT_ID":"2021-025F","EPOCH":"2026-02-19T06:08:54.112704","MEAN_MOTION":13.13471485,"ECCENTRICITY":0.00019131,"INCLINATION":87.9051,"RA_OF_ASC_NODE":343.6537,"ARG_OF_PERICENTER":74.8758,"MEAN_ANOMALY":285.2583,"EPHEMERIS_TYPE":0,"CLASSIFICATION_TYPE":"U","NORAD_CAT_ID":48047,"ELEMENT_SET_NO":999,"REV_AT_EPOCH":23806,"BSTAR":0.0010136881,"MEAN_MOTION_DOT":3.83e-6,"MEAN_MOTION_DDOT":0},{"OBJECT_NAME":"ONEWEB-0107","OBJECT_ID":"2021-025G","EPOCH":"2026-02-19T06:11:19.503168","MEAN_MOTION":13.134724,"ECCENTRICITY":0.00020171,"INCLINATION":87.905,"RA_OF_ASC_NODE":343.6488,"ARG_OF_PERICENTER":82.4361,"MEAN_ANOMALY":277.6997,"EPHEMERIS_TYPE":0,"CLASSIFICATION_TYPE":"U","NORAD_CAT_ID":48048,"ELEMENT_SET_NO":999,"REV_AT_EPOCH":23804,"BSTAR":0.00099966689,"MEAN_MOTION_DOT":3.78e-6,"MEAN_MOTION_DDOT":0},{"OBJECT_NAME":"ONEWEB-0101","OBJECT_ID":"2021-025H","EPOCH":"2026-02-19T05:17:42.476064","MEAN_MOTION":13.13470787,"ECCENTRICITY":0.00018396,"INCLINATION":87.9039,"RA_OF_ASC_NODE":343.6842,"ARG_OF_PERICENTER":83.8465,"MEAN_ANOMALY":276.2874,"EPHEMERIS_TYPE":0,"CLASSIFICATION_TYPE":"U","NORAD_CAT_ID":48049,"ELEMENT_SET_NO":999,"REV_AT_EPOCH":23801,"BSTAR":-0.00064862625,"MEAN_MOTION_DOT":-2.24e-6,"MEAN_MOTION_DDOT":0},{"OBJECT_NAME":"ONEWEB-0113","OBJECT_ID":"2021-025J","EPOCH":"2026-02-19T06:52:27.253056","MEAN_MOTION":13.13973429,"ECCENTRICITY":0.00015442,"INCLINATION":87.9049,"RA_OF_ASC_NODE":343.592,"ARG_OF_PERICENTER":76.2209,"MEAN_ANOMALY":283.9092,"EPHEMERIS_TYPE":0,"CLASSIFICATION_TYPE":"U","NORAD_CAT_ID":48050,"ELEMENT_SET_NO":999,"REV_AT_EPOCH":23812,"BSTAR":-0.00017469344,"MEAN_MOTION_DOT":-5.2e-7,"MEAN_MOTION_DDOT":0}]
